OBJECT_NAME,OBJECT_ID,EPOCH,MEAN_MOTION,ECCENTRICITY,INCLINATION,RA_OF_ASC_NODE,ARG_OF_PERICENTER,MEAN_ANOMALY,EPHEMERIS_TYPE,CLASSIFICATION_TYPE,NORAD_CAT_ID,ELEMENT_SET_NO,REV_AT_EPOCH,BSTAR,MEAN_MOTION_DOT,MEAN_MOTION_DDOT
JILIN-1 07,2018-008E,2026-07-20T06:35:06.658368,15.35213156,.00063254,97.1770,220.3308,305.3667,54.6986,0,U,43159,999,47007,.14471175E-3,.4871E-4,0
JILIN-1 08,2018-008F,2026-07-20T07:09:30.031200,15.34043702,.00047173,97.1806,219.6324,331.3577,28.7407,0,U,43160,999,47002,.10409762E-3,.3353E-4,0
S-NET D,2018-014G,2026-07-19T17:17:59.820000,15.16940248,.00062222,97.5323,105.3092,265.0958,94.9565,0,U,43186,999,46369,.11249205E-3,.2151E-4,0
S-NET B,2018-014H,2026-07-20T04:40:20.696736,15.16912532,.00068881,97.5328,105.7677,257.3194,102.7270,0,U,43187,999,46376,.12614372E-3,.2419E-4,0
S-NET A,2018-014J,2026-07-19T23:36:04.430304,15.16949915,.00067504,97.5338,105.7728,258.9742,101.0732,0,U,43188,999,46373,.11611592E-3,.2224E-4,0
S-NET C,2018-014K,2026-07-19T14:31:16.154112,15.16900273,.0008164,97.5354,105.4763,251.7007,108.3338,0,U,43189,999,46222,.12430516E-3,.2382E-4,0
PAZ,2018-020A,2026-07-20T07:18:39.924864,15.19153678,.00016696,97.4458,208.2204,88.2134,271.9292,0,U,43215,999,46603,.49413397E-4,.971E-5,0
GOES 17,2018-022A,2026-07-20T06:33:48.373920,1.00272168,.00005811,1.0201,85.1871,61.9000,159.9124,0,U,43226,999,3075,0,-.185E-5,0
LKW-4,2018-025A,2026-07-20T00:54:37.093248,15.64816108,.00036863,97.6365,14.5565,169.4886,190.6451,0,U,43236,999,46516,.30080234E-3,.29219E-3,0
ZHUHAI-1 OVS-02,2018-040B,2026-07-20T07:07:36.856704,15.25415685,.00054217,97.0387,216.5701,123.3979,236.7779,0,U,43440,999,45776,.15636453E-3,.3885E-4,0
ZHUHAI-1 OHS-02,2018-040C,2026-07-20T07:53:13.757280,15.26311310,.00114399,97.0364,223.5724,110.1155,250.1317,0,U,43441,999,11933,.17663678E-3,.4525E-4,0
GAOFEN-6,2018-048A,2026-07-20T06:42:29.626848,14.76387385,.00120044,98.0948,263.9933,67.4893,292.7586,0,U,43484,999,43827,.64465865E-4,.396E-5,0
LUOJIA-1 01,2018-048B,2026-07-20T06:34:05.136384,14.87388550,.00093512,97.8091,278.9307,22.3006,337.8615,0,U,43485,999,43913,.3035266E-4,.22E-5,0
PAKTES 1A,2018-056A,2026-07-20T05:50:50.851968,14.99216648,.00195601,98.1307,359.1418,4.8992,355.2418,0,U,43529,999,43687,.90799834E-4,.1044E-4,0
PRSS-1,2018-056B,2026-07-20T06:33:28.169280,14.82031711,.0001243,97.7798,268.2247,92.2612,267.8744,0,U,43530,999,43333,.31493165E-4,.199E-5,0
HAIYANG-1C,2018-068A,2026-07-20T07:32:22.166880,14.34187304,.00108199,98.5172,273.1412,3.4580,356.6678,0,U,43609,999,41183,-.9471098E-5,-.7E-6,0
SSTL S1-4,2018-071A,2026-07-20T06:14:09.483072,14.96212727,.00027174,97.4978,71.4897,90.3506,269.8028,0,U,43618,999,42788,.10269143E-3,.1103E-4,0
HAIYANG-2B,2018-081A,2026-07-20T07:31:00.482592,13.79306940,.00011397,99.3293,209.5704,141.2808,218.8426,0,U,43655,999,38949,.10523839E-3,.64E-6,0
CFOSAT,2018-083A,2026-07-20T06:50:02.146848,15.16312632,.00015969,97.3619,204.8433,38.3364,321.7982,0,U,43662,999,42745,.93150969E-4,.174E-4,0
TEN-KOH,2018-084G,2026-07-20T06:40:11.116416,15.03062536,.00096166,98.0770,35.0347,16.1063,344.0465,0,U,43677,999,42113,.10623091E-3,.1366E-4,0
DIWATA-2B,2018-084H,2026-07-20T05:53:30.271200,15.00573393,.00125672,98.1218,38.9021,68.7995,291.4568,0,U,43678,999,42117,.72937122E-4,.856E-5,0
STARS-AO,2018-084J,2026-07-20T02:45:40.072032,15.17375162,.00034573,98.0472,57.1185,70.9378,289.2228,0,U,43679,999,42246,.14890876E-3,.2898E-4,0
AUTCUBE 2,2018-084K,2026-07-20T02:15:42.326496,15.10283192,.0007586,98.0689,49.0146,295.6444,64.4000,0,U,43681,999,42189,.10553058E-3,.1657E-4,0
METOP-C,2018-087A,2026-07-20T05:17:28.385088,14.21503735,.00021039,98.6626,260.2172,87.2573,272.8846,0,U,43689,999,39952,.37219627E-4,.38E-6,0
ES'HAIL 2,2018-090A,2026-07-20T06:24:25.561728,1.00274029,.00024498,0.0206,79.9144,78.0088,262.0181,0,U,43700,999,2800,0,.142E-5,0
MOHAMMED VI-B,2018-095A,2026-07-20T05:38:24.840672,14.77085356,.00017836,97.9539,273.1021,93.4885,266.6529,0,U,43717,999,41306,.71330465E-4,.453E-5,0
HYSIS,2018-096A,2026-07-20T07:15:13.953312,14.78676363,.00017599,97.9819,267.7879,83.5597,276.5814,0,U,43719,999,41231,.82794581E-4,.555E-5,0
COSMOS 2530 (RODNIK-S 16),2018-097A,2026-07-20T07:12:11.067840,12.42881579,.00187406,82.5126,201.7299,327.5069,32.4856,0,U,43751,999,34640,-.75985972E-3,-.95E-6,0
COSMOS 2531 (RODNIK-S 17),2018-097B,2026-07-20T07:43:04.755648,12.42913027,.00163463,82.5171,202.7862,347.8172,12.2511,0,U,43752,999,34642,-.29162548E-3,-.31E-6,0
