JILIN-1 07              
1 43159U 18008E   26201.27438262  .00004871  00000+0  14471-3 0  9993
2 43159  97.1770 220.3308 0006325 305.3667  54.6986 15.35213156470077
JILIN-1 08              
1 43160U 18008F   26201.29826425  .00003353  00000+0  10410-3 0  9992
2 43160  97.1806 219.6324 0004717 331.3577  28.7407 15.34043702470022
S-NET D                 
1 43186U 18014G   26200.72083125  .00002151  00000+0  11249-3 0  9992
2 43186  97.5323 105.3092 0006222 265.0958  94.9565 15.16940248463696
S-NET B                 
1 43187U 18014H   26201.19468399  .00002419  00000+0  12614-3 0  9999
2 43187  97.5328 105.7677 0006888 257.3194 102.7270 15.16912532463763
S-NET A                 
1 43188U 18014J   26200.98338461  .00002224  00000+0  11612-3 0  9993
2 43188  97.5338 105.7728 0006750 258.9742 101.0732 15.16949915463733
S-NET C                 
1 43189U 18014K   26200.60504808  .00002382  00000+0  12431-3 0  9998
2 43189  97.5354 105.4763 0008164 251.7007 108.3338 15.16900273462223
PAZ                     
1 43215U 18020A   26201.30462876  .00000971  00000+0  49413-4 0  9994
2 43215  97.4458 208.2204 0001669  88.2134 271.9292 15.19153678466037
GOES 17                 
1 43226U 18022A   26201.27347655 -.00000185  00000+0  00000+0 0  9993
2 43226   1.0201  85.1871 0000581  61.9000 159.9124  1.00272168 30756
LKW-4                   
1 43236U 18025A   26201.03792932  .00029219  00000+0  30080-3 0  9996
2 43236  97.6365  14.5565 0003686 169.4886 190.6451 15.64816108465165
ZHUHAI-1 OVS-02         
1 43440U 18040B   26201.29695436  .00003885  00000+0  15636-3 0  9990
2 43440  97.0387 216.5701 0005421 123.3979 236.7779 15.25415685457761
ZHUHAI-1 OHS-02         
1 43441U 18040C   26201.32863145  .00004525  00000+0  17664-3 0  9994
2 43441  97.0364 223.5724 0011439 110.1155 250.1317 15.26311310119333
GAOFEN-6                
1 43484U 18048A   26201.27950957  .00000396  00000+0  64466-4 0  9996
2 43484  98.0948 263.9933 0012004  67.4893 292.7586 14.76387385438277
LUOJIA-1 01             
1 43485U 18048B   26201.27367056  .00000220  00000+0  30353-4 0  9993
2 43485  97.8091 278.9307 0009351  22.3006 337.8615 14.87388550439139
PAKTES 1A               
1 43529U 18056A   26201.24364412  .00001044  00000+0  90800-4 0  9999
2 43529  98.1307 359.1418 0019560   4.8992 355.2418 14.99216648436873
PRSS-1                  
1 43530U 18056B   26201.27324270  .00000199  00000+0  31493-4 0  9995
2 43530  97.7798 268.2247 0001243  92.2612 267.8744 14.82031711433339
HAIYANG-1C              
1 43609U 18068A   26201.31414545 -.00000070  00000+0 -94711-5 0  9998
2 43609  98.5172 273.1412 0010819   3.4580 356.6678 14.34187304411838
SSTL S1-4               
1 43618U 18071A   26201.25983198  .00001103  00000+0  10269-3 0  9990
2 43618  97.4978  71.4897 0002717  90.3506 269.8028 14.96212727427889
HAIYANG-2B              
1 43655U 18081A   26201.31320003  .00000064  00000+0  10524-3 0  9998
2 43655  99.3293 209.5704 0001139 141.2808 218.8426 13.79306940389491
CFOSAT                  
1 43662U 18083A   26201.28474707  .00001740  00000+0  93151-4 0  9995
2 43662  97.3619 204.8433 0001596  38.3364 321.7982 15.16312632427454
TEN-KOH                 
1 43677U 18084G   26201.27790644  .00001366  00000+0  10623-3 0  9998
2 43677  98.0770  35.0347 0009616  16.1063 344.0465 15.03062536421139
DIWATA-2B               
1 43678U 18084H   26201.24548925  .00000856  00000+0  72937-4 0  9999
2 43678  98.1218  38.9021 0012567  68.7995 291.4568 15.00573393421173
STARS-AO                
1 43679U 18084J   26201.11504713  .00002898  00000+0  14891-3 0  9995
2 43679  98.0472  57.1185 0003457  70.9378 289.2228 15.17375162422460
AUTCUBE 2               
1 43681U 18084K   26201.09423989  .00001657  00000+0  10553-3 0  9993
2 43681  98.0689  49.0146 0007586 295.6444  64.4000 15.10283192421898
METOP-C                 
1 43689U 18087A   26201.22046742  .00000038  00000+0  37220-4 0  9990
2 43689  98.6626 260.2172 0002103  87.2573 272.8846 14.21503735399523
ES'HAIL 2               
1 43700U 18090A   26201.26696252  .00000142  00000+0  00000+0 0  9996
2 43700   0.0206  79.9144 0002449  78.0088 262.0181  1.00274029 28003
MOHAMMED VI-B           
1 43717U 18095A   26201.23500973  .00000453  00000+0  71330-4 0  9994
2 43717  97.9539 273.1021 0001783  93.4885 266.6529 14.77085356413064
HYSIS                   
1 43719U 18096A   26201.30224483  .00000555  00000+0  82795-4 0  9994
2 43719  97.9819 267.7879 0001759  83.5597 276.5814 14.78676363412319
COSMOS 2530 (RODNIK-S *)
1 43751U 18097A   26201.30012810 -.00000095  00000+0 -75986-3 0  9994
2 43751  82.5126 201.7299 0018740 327.5069  32.4856 12.42881579346400
COSMOS 2531 (RODNIK-S *)
1 43752U 18097B   26201.32158282 -.00000031  00000+0 -29163-3 0  9997
2 43752  82.5171 202.7862 0016346 347.8172  12.2511 12.42913027346428
